OBJECT_NAME,OBJECT_ID,EPOCH,MEAN_MOTION,ECCENTRICITY,INCLINATION,RA_OF_ASC_NODE,ARG_OF_PERICENTER,MEAN_ANOMALY,EPHEMERIS_TYPE,CLASSIFICATION_TYPE,NORAD_CAT_ID,ELEMENT_SET_NO,REV_AT_EPOCH,BSTAR,MEAN_MOTION_DOT,MEAN_MOTION_DDOT
CUBEBUG-2 (LO-74),2013-066AA,2026-07-22T07:04:20.987040,14.94001241,.00554484,97.8917,152.4311,271.2491,88.2376,0,U,39440,999,68223,.24278153E-3,.2604E-4,0
FUNCUBE-1 (AO-73),2013-066AE,2026-07-22T09:12:48.932352,15.09891550,.00381411,97.8301,175.5790,84.3797,276.1779,0,U,39444,999,68497,.47582427E-3,.7775E-4,0
UWE-3,2013-066AG,2026-07-21T20:04:24.811392,14.97233886,.00477658,97.8727,159.1532,201.8178,158.1010,0,U,39446,999,68276,.26824669E-3,.3114E-4,0
UNISAT-6,2014-033C,2026-07-22T05:27:56.502720,14.88387173,.00437069,97.7918,355.3341,314.1378,45.6247,0,U,40012,999,65137,.19328809E-3,.1765E-4,0
DUCHIFAT-1,2014-033M,2026-07-22T10:16:22.510848,15.72664069,.00037303,98.0416,267.7633,227.4828,132.6119,0,U,40021,999,66127,.11919688E-2,.162629E-2,0
QB50P1,2014-033R,2026-07-22T11:16:31.936512,15.18744167,.0010553,98.0974,217.1032,103.6108,256.6300,0,U,40025,999,65838,.40483776E-3,.8347E-4,0
LILACSAT-2,2015-049K,2026-07-22T14:30:01.235808,15.52555330,.00086375,97.4630,241.8128,119.8780,240.3332,0,U,40908,999,60124,.32468475E-3,.19875E-3,0
FOX-1A (AO-85),2015-058D,2026-07-22T08:43:50.116800,14.91122448,.01329839,64.7740,169.6512,43.0929,318.0501,0,U,40967,999,11881,.30490392E-3,.3414E-4,0
CAS-2T & KS-1Q,2016-066G,2026-07-22T11:48:29.589696,14.44778937,.03418444,98.3808,278.8242,22.6465,338.9408,0,U,41847,999,50989,.87293778E-4,.56E-5,0
RADFXSAT (FOX-1B),2017-073E,2026-07-22T14:12:33.856992,15.13130557,.01486257,97.4661,70.0856,205.7617,153.6161,0,U,43017,999,47074,.33568959E-3,.7742E-4,0
DIWATA-2B,2018-084H,2026-07-22T13:54:16.836192,15.00580858,.00123415,98.1225,41.3390,61.6300,298.6166,0,U,43678,999,42152,.11588823E-3,.1399E-4,0
ES'HAIL 2,2018-090A,2026-07-22T11:26:41.930880,1.00273626,.00025025,0.0100,20.5670,134.0408,343.0902,0,U,43700,999,2803,0,.148E-5,0
FOX-1CLIFF (AO-95),2018-099N,2026-07-22T14:14:22.185312,15.27385023,.00079124,97.4364,263.7217,210.5948,149.4830,0,U,43770,999,41862,.45608186E-3,.12172E-3,0
ITASAT,2018-099AE,2026-07-22T03:02:44.191104,15.19439192,.00113209,97.4010,253.9464,223.4985,136.5358,0,U,43786,999,41821,.29324339E-3,.6157E-4,0
JY1SAT (JO-97),2018-099AX,2026-07-22T09:09:02.276640,15.34688119,.00073305,97.4108,266.3595,136.8973,223.2845,0,U,43803,999,41902,.57498257E-3,.19292E-3,0
UWE-4,2018-111E,2026-07-22T08:00:38.294784,15.48148910,.00074165,97.5824,133.3991,169.0004,191.1409,0,U,43880,999,41621,.6787843E-3,.35708E-3,0
TIANYAN 01,2019-093C,2026-07-22T14:02:36.103776,14.86567232,.00128992,97.7513,274.9520,337.0642,22.9996,0,U,44881,999,35667,.28866756E-4,.202E-5,0
RS-44 & BREEZE-KM R/B,2019-096E,2026-07-22T08:13:30.650304,12.79748937,.02183986,82.5245,316.3463,62.3623,299.9463,0,U,44909,999,30684,-.9832918E-5,.1E-6,0
SALSAT,2020-068K,2026-07-22T11:04:14.814912,15.30243913,.00099778,97.8868,208.6876,167.8214,192.3268,0,U,46495,999,32075,.24997179E-3,.7239E-4,0
XW-3 (CAS-9),2021-131B,2026-07-22T14:19:27.062400,14.41386162,.00040815,98.4980,295.7959,11.1128,349.0150,0,U,50466,999,24021,.10931456E-3,.31E-5,0
GREENCUBE (IO-117),2022-080E,2026-07-21T06:26:53.364480,6.42583331,.0009377,70.1384,286.3946,282.6707,77.2904,0,U,53109,999,9425,0,-.3E-7,0
UMKA 1 (RS40S),2023-091G,2026-07-22T13:16:57.887328,15.21177503,.00122695,97.5029,262.1190,4.4726,355.6617,0,U,57172,999,16938,.26594771E-3,.5869E-4,0
CUBESX-HSE 3 (RS42S),2023-091N,2026-07-22T14:00:09.325728,15.32012402,.00089751,97.5071,269.6346,333.7357,26.3428,0,U,57178,999,16984,.43994973E-3,.13543E-3,0
MONITOR-3 (RS58S),2023-091Q,2026-07-22T13:22:10.920576,15.28471127,.00102443,97.5064,267.2748,342.6791,17.4098,0,U,57180,999,16969,.37715813E-3,.10394E-3,0
MONITOR-4 (RS57S),2023-091S,2026-07-22T12:49:10.420896,15.28558730,.00102416,97.5056,267.2248,342.9756,17.1139,0,U,57182,999,16969,.40655254E-3,.11241E-3,0
MONITOR-2 (RS39S),2023-091U,2026-07-22T13:17:53.077056,15.19199637,.00106619,97.5051,261.6108,358.8238,1.2970,0,U,57184,999,16932,.21514414E-3,.4465E-4,0
SVYATOBOR 1 (RS60S),2023-091X,2026-07-22T13:53:30.743520,15.27147932,.0007996,97.5069,267.6009,336.9625,23.1254,0,U,57187,999,16971,.34816204E-3,.9203E-4,0
VIZARD-METEO (RS38S),2023-091Z,2026-07-22T13:46:41.477952,15.37039963,.00051944,97.5071,273.7918,307.2148,52.8622,0,U,57189,999,17012,.48842237E-3,.17644E-3,0
POLYTECH-UNIVERSE 3 (RS46S),2023-091AB,2026-07-22T13:50:04.015104,15.19413338,.00153492,97.5027,261.1372,12.9598,347.2028,0,U,57191,999,16932,.23537378E-3,.4929E-4,0
UTMN 2 (RS27S),2023-091AP,2026-07-22T13:58:05.748672,15.32826864,.00061249,97.5067,271.3099,320.0119,40.0671,0,U,57203,999,16996,.42688626E-3,.1347E-3,0
