CUBEBUG-2 (LO-74)
1 39440U 13066AA  26203.29468735  .00002604  00000-0  24278-3 0  9991
2 39440  97.8917 152.4311 0055448 271.2491  88.2376 14.94001241682233
FUNCUBE-1 (AO-73)
1 39444U 13066AE  26203.38389968  .00007775  00000-0  47582-3 0  9992
2 39444  97.8301 175.5790 0038141  84.3797 276.1779 15.09891550684979
UWE-3
1 39446U 13066AG  26202.83639828  .00003114  00000-0  26825-3 0  9996
2 39446  97.8727 159.1532 0047766 201.8178 158.1010 14.97233886682767
UNISAT-6
1 40012U 14033C   26203.22773730  .00001765  00000-0  19329-3 0  9998
2 40012  97.7918 355.3341 0043707 314.1378  45.6247 14.88387173651372
DUCHIFAT-1
1 40021U 14033M   26203.42803832  .00162629  00000-0  11920-2 0  9992
2 40021  98.0416 267.7633 0003730 227.4828 132.6119 15.72664069661278
LILACSAT-2
1 40908U 15049K   26203.60418097  .00019875  00000-0  32468-3 0  9994
2 40908  97.4630 241.8128 0008637 119.8780 240.3332 15.52555330601240
CAS-2T & KS-1Q
1 41847U 16066G   26203.49200914  .00000560  00000-0  87294-4 0  9990
2 41847  98.3808 278.8242 0341844  22.6465 338.9408 14.44778937509894
FOX-1B (AO-91)
1 43017U 17073E   26203.59205853  .00007742  00000-0  33569-3 0  9992
2 43017  97.4661  70.0856 0148626 205.7617 153.6161 15.13130557470747
FUNCUBE-3 (EO-79)/QB50P1
1 40025U 14033R   26203.46981408  .00008347  00000-0  40484-3 0  9990
2 40025  98.0974 217.1032 0010553 103.6108 256.6300 15.18744167658385
FOX-1A (AO-85)
1 40967U 15058D   26203.36377450  .00003414  00000-0  30490-3 0  9994
2 40967  64.7740 169.6512 0132984  43.0929 318.0501 14.91122448118813
DIWATA-2B (PO-101)
1 43678U 18084H   26203.57936153  .00001399  00000-0  11589-3 0  9990
2 43678  98.1225  41.3390 0012341  61.6300 298.6166 15.00580858421526
ESHAIL-2
1 43700U 18090A   26203.47687420  .00000148  00000-0  00000-0 0  9996
2 43700   0.0100  20.5670 0002502 134.0408 343.0902  1.00273626 28037
ITASAT-1
1 43786U 18099AE  26203.12690036  .00006157  00000-0  29324-3 0  9997
2 43786  97.4010 253.9464 0011321 223.4985 136.5358 15.19439192418216
FOX-1CLIFF (AO-95)
1 43770U 18099N   26203.59331233  .00012172  00000-0  45608-3 0  9999
2 43770  97.4364 263.7217 0007912 210.5948 149.4830 15.27385023418628
JY1SAT (JO-97)
1 43803U 18099AX  26203.38127635  .00019292  00000-0  57498-3 0  9992
2 43803  97.4108 266.3595 0007331 136.8973 223.2845 15.34688119419024
UWE-4
1 43880U 18111E   26203.33377656  .00035708  00000-0  67878-3 0  9990
2 43880  97.5824 133.3991 0007416 169.0004 191.1409 15.48148910416217
CAS-6 (TO-108)
1 44881U 19093C   26203.58514009  .00000202  00000-0  28867-4 0  9991
2 44881  97.7513 274.9520 0012899 337.0642  22.9996 14.86567232356670
DOSAAF-85 (RS-44)
1 44909U 19096E   26203.34271586  .00000010  00000-0 -98329-5 0  9998
2 44909  82.5245 316.3463 0218399  62.3623 299.9463 12.79748937306844
SALSAT (TUBSAT 22)
1 46495U 20068K   26203.46128258  .00007239  00000-0  24997-3 0  9998
2 46495  97.8868 208.6876 0009978 167.8214 192.3268 15.30243913320754
CAMSAT XW-3 (CAS-9)
1 50466U 21131B   26203.59684100  .00000310  00000-0  10931-3 0  9996
2 50466  98.4980 295.7959 0004081  11.1128 349.0150 14.41386162240211
ROBUSTA 1F (MTCUBE-2)
1 53109U 22080E   26202.26867320 -.00000003  00000-0  00000-0 0  9990
2 53109  70.1384 286.3946 0009377 282.6707  77.2904  6.42583331 94253
UMKA-1 (RS40S)
1 57172U 23091G   26203.55344777  .00005869  00000-0  26595-3 0  9990
2 57172  97.5029 262.1190 0012269   4.4726 355.6617 15.21177503169382
CUBESX-HSE-3 (RS42S)
1 57178U 23091N   26203.58344127  .00013543  00000-0  43995-3 0  9999
2 57178  97.5071 269.6346 0008975 333.7357  26.3428 15.32012402169848
MONITOR-3 (RS58S)
1 57180U 23091Q   26203.55707084  .00010394  00000-0  37716-3 0  9999
2 57180  97.5064 267.2748 0010244 342.6791  17.4098 15.28471127169691
MONITOR-4 (RS57S)
1 57182U 23091S   26203.53414839  .00011241  00000-0  40655-3 0  9990
2 57182  97.5056 267.2248 0010242 342.9756  17.1139 15.28558730169690
MONITOR-2 (RS39S)
1 57184U 23091U   26203.55408654  .00004465  00000-0  21514-3 0  9995
2 57184  97.5051 261.6108 0010662 358.8238   1.2970 15.19199637169321
SVYATOBOR-1 (RS60S)
1 57187U 23091X   26203.57882805  .00009203  00000-0  34816-3 0  9998
2 57187  97.5069 267.6009 0007996 336.9625  23.1254 15.27147932169713
VIZARD-METEO (RS38S)
1 57189U 23091Z   26203.57409118  .00017644  00000-0  48842-3 0  9994
2 57189  97.5071 273.7918 0005194 307.2148  52.8622 15.37039963170124
UTMN-2 (RS27S)
1 57203U 23091AP  26203.58201098  .00013470  00000-0  42689-3 0  9995
2 57203  97.5067 271.3099 0006125 320.0119  40.0671 15.32826864169968
POLYTECH UNIVERSE-3 (RS46S)
1 57191U 23091AB  26203.57643536  .00004929  00000-0  23537-3 0  9997
2 57191  97.5027 261.1372 0015349  12.9598 347.2028 15.19413338169328
